{
  "type": "FeatureCollection",
  "features": [
    {
      "type": "Feature",
      "properties": {
        "norad_id": 34420,
        "name": "COSMOS 2251 DEB",
        "group": "cosmos-2251-debris",
        "lat": -9.53230937505363,
        "lon": 121.2515568358208,
        "alt_km": 686.292990194619,
        "timestamp": "2025-12-02T08:59:33.109014+00:00",
        "meta_object_name": "COSMOS 2251 DEB",
        "meta_object_id": "1993-036RM",
        "meta_epoch": "2025-12-01T20:32:17.143008",
        "meta_mean_motion": 14.68242633,
        "meta_eccentricity": 0.0107007,
        "meta_inclination": 74.0317,
        "meta_ra_of_asc_node": 125.0109,
        "meta_arg_of_pericenter": 248.6294,
        "meta_mean_anomaly": 238.5851,
        "meta_ephemeris_type": 0,
        "meta_classification_type": "U",
        "meta_norad_cat_id": 34420,
        "meta_element_set_no": 999,
        "meta_rev_at_epoch": 89610,
        "meta_bstar": 0.00025294,
        "meta_mean_motion_dot": 1.553e-05,
        "meta_mean_motion_ddot": 0,
        "tle_line1": "1 34420U 93036RM  25335.85575397  .00001553  00000+0  25294-3 0  9999",
        "tle_line2": "2 34420  74.0317 125.0109 0107007 248.6294 238.5851 14.68242633896100"
      },
      "geometry": {
        "type": "Point",
        "coordinates": [
          121.2515568358208,
          -9.53230937505363
        ]
      }
    },
    {
      "type": "Feature",
      "properties": {
        "norad_id": 34425,
        "name": "COSMOS 2251 DEB",
        "group": "cosmos-2251-debris",
        "lat": -49.758041081360545,
        "lon": 54.58982443257741,
        "alt_km": 697.6935466583018,
        "timestamp": "2025-12-02T08:59:33.109024+00:00",
        "meta_object_name": "COSMOS 2251 DEB",
        "meta_object_id": "1993-036RS",
        "meta_epoch": "2025-12-01T23:22:47.339328",
        "meta_mean_motion": 14.62017973,
        "meta_eccentricity": 0.0025609,
        "meta_inclination": 74.0202,
        "meta_ra_of_asc_node": 75.1478,
        "meta_arg_of_pericenter": 203.8437,
        "meta_mean_anomaly": 156.1546,
        "meta_ephemeris_type": 0,
        "meta_classification_type": "U",
        "meta_norad_cat_id": 34425,
        "meta_element_set_no": 999,
        "meta_rev_at_epoch": 88583,
        "meta_bstar": 0.00079803,
        "meta_mean_motion_dot": 3.993e-05,
        "meta_mean_motion_ddot": 0,
        "tle_line1": "1 34425U 93036RS  25335.97415902  .00003993  00000+0  79803-3 0  9997",
        "tle_line2": "2 34425  74.0202  75.1478 0025609 203.8437 156.1546 14.62017973885836"
      },
      "geometry": {
        "type": "Point",
        "coordinates": [
          54.58982443257741,
          -49.758041081360545
        ]
      }
    },
    {
      "type": "Feature",
      "properties": {
        "norad_id": 34429,
        "name": "COSMOS 2251 DEB",
        "group": "cosmos-2251-debris",
        "lat": 16.457756779733895,
        "lon": -164.66502215875119,
        "alt_km": 453.43342616003156,
        "timestamp": "2025-12-02T08:59:33.109034+00:00",
        "meta_object_name": "COSMOS 2251 DEB",
        "meta_object_id": "1993-036RW",
        "meta_epoch": "2025-12-02T01:38:48.552000",
        "meta_mean_motion": 15.36397337,
        "meta_eccentricity": 0.0005394,
        "meta_inclination": 73.9719,
        "meta_ra_of_asc_node": 191.1234,
        "meta_arg_of_pericenter": 40.9734,
        "meta_mean_anomaly": 84.1076,
        "meta_ephemeris_type": 0,
        "meta_classification_type": "U",
        "meta_norad_cat_id": 34429,
        "meta_element_set_no": 999,
        "meta_rev_at_epoch": 89284,
        "meta_bstar": 0.0042889,
        "meta_mean_motion_dot": 0.00155524,
        "meta_mean_motion_ddot": 0,
        "tle_line1": "1 34429U 93036RW  25336.06861750  .00155524  00000+0  42889-2 0  9999",
        "tle_line2": "2 34429  73.9719 191.1234 0005394  40.9734  84.1076 15.36397337892843"
      },
      "geometry": {
        "type": "Point",
        "coordinates": [
          -164.66502215875119,
          16.457756779733895
        ]
      }
    },
    {
      "type": "Feature",
      "properties": {
        "norad_id": 34430,
        "name": "COSMOS 2251 DEB",
        "group": "cosmos-2251-debris",
        "lat": -25.64399259213038,
        "lon": 150.37687610099562,
        "alt_km": 807.4531955322391,
        "timestamp": "2025-12-02T08:59:33.109044+00:00",
        "meta_object_name": "COSMOS 2251 DEB",
        "meta_object_id": "1993-036RX",
        "meta_epoch": "2025-12-02T01:22:00.035904",
        "meta_mean_motion": 14.39576791,
        "meta_eccentricity": 0.0059837,
        "meta_inclination": 74.051,
        "meta_ra_of_asc_node": 323.0722,
        "meta_arg_of_pericenter": 35.4624,
        "meta_mean_anomaly": 325.0485,
        "meta_ephemeris_type": 0,
        "meta_classification_type": "U",
        "meta_norad_cat_id": 34430,
        "meta_element_set_no": 999,
        "meta_rev_at_epoch": 87801,
        "meta_bstar": 0.00052504,
        "meta_mean_motion_dot": 1.648e-05,
        "meta_mean_motion_ddot": 0,
        "tle_line1": "1 34430U 93036RX  25336.05694486  .00001648  00000+0  52504-3 0  9993",
        "tle_line2": "2 34430  74.0510 323.0722 0059837  35.4624 325.0485 14.39576791878011"
      },
      "geometry": {
        "type": "Point",
        "coordinates": [
          150.37687610099562,
          -25.64399259213038
        ]
      }
    },
    {
      "type": "Feature",
      "properties": {
        "norad_id": 34431,
        "name": "COSMOS 2251 DEB",
        "group": "cosmos-2251-debris",
        "lat": 26.054053914669694,
        "lon": 5.935615391536566,
        "alt_km": 751.7696557094641,
        "timestamp": "2025-12-02T08:59:33.109055+00:00",
        "meta_object_name": "COSMOS 2251 DEB",
        "meta_object_id": "1993-036RY",
        "meta_epoch": "2025-12-02T01:33:22.182048",
        "meta_mean_motion": 14.28723118,
        "meta_eccentricity": 0.0068807,
        "meta_inclination": 74.0741,
        "meta_ra_of_asc_node": 194.5207,
        "meta_arg_of_pericenter": 183.0872,
        "meta_mean_anomaly": 176.9863,
        "meta_ephemeris_type": 0,
        "meta_classification_type": "U",
        "meta_norad_cat_id": 34431,
        "meta_element_set_no": 999,
        "meta_rev_at_epoch": 86990,
        "meta_bstar": 0.0006218,
        "meta_mean_motion_dot": 1.58e-05,
        "meta_mean_motion_ddot": 0,
        "tle_line1": "1 34431U 93036RY  25336.06484007  .00001580  00000+0  62180-3 0  9997",
        "tle_line2": "2 34431  74.0741 194.5207 0068807 183.0872 176.9863 14.28723118869905"
      },
      "geometry": {
        "type": "Point",
        "coordinates": [
          5.935615391536566,
          26.054053914669694
        ]
      }
    },
    {
      "type": "Feature",
      "properties": {
        "norad_id": 34432,
        "name": "COSMOS 2251 DEB",
        "group": "cosmos-2251-debris",
        "lat": 40.62455490690965,
        "lon": 135.0005191507879,
        "alt_km": 1006.8106442129974,
        "timestamp": "2025-12-02T08:59:33.109065+00:00",
        "meta_object_name": "COSMOS 2251 DEB",
        "meta_object_id": "1993-036RZ",
        "meta_epoch": "2025-11-30T19:28:12.273024",
        "meta_mean_motion": 14.02822542,
        "meta_eccentricity": 0.01832945,
        "meta_inclination": 73.827,
        "meta_ra_of_asc_node": 123.3387,
        "meta_arg_of_pericenter": 207.8109,
        "meta_mean_anomaly": 223.0223,
        "meta_ephemeris_type": 0,
        "meta_classification_type": "U",
        "meta_norad_cat_id": 34432,
        "meta_element_set_no": 999,
        "meta_rev_at_epoch": 85517,
        "meta_bstar": 0.00099665905,
        "meta_mean_motion_dot": 1.763e-05,
        "meta_mean_motion_ddot": 0,
        "tle_line1": "1 34432U 93036RZ  25334.81125316  .00001763  00000+0  99666-3 0  9996",
        "tle_line2": "2 34432  73.8270 123.3387 0183294 207.8109 223.0223 14.02822542855176"
      },
      "geometry": {
        "type": "Point",
        "coordinates": [
          135.0005191507879,
          40.62455490690965
        ]
      }
    },
    {
      "type": "Feature",
      "properties": {
        "norad_id": 34433,
        "name": "COSMOS 2251 DEB",
        "group": "cosmos-2251-debris",
        "lat": 55.24787207258146,
        "lon": -162.2939985873552,
        "alt_km": 871.3216442068742,
        "timestamp": "2025-12-02T08:59:33.109075+00:00",
        "meta_object_name": "COSMOS 2251 DEB",
        "meta_object_id": "1993-036SA",
        "meta_epoch": "2025-12-02T00:13:13.494144",
        "meta_mean_motion": 14.12772315,
        "meta_eccentricity": 0.0151692,
        "meta_inclination": 74.0107,
        "meta_ra_of_asc_node": 173.942,
        "meta_arg_of_pericenter": 314.3942,
        "meta_mean_anomaly": 44.4856,
        "meta_ephemeris_type": 0,
        "meta_classification_type": "U",
        "meta_norad_cat_id": 34433,
        "meta_element_set_no": 999,
        "meta_rev_at_epoch": 85798,
        "meta_bstar": 0.0015741,
        "meta_mean_motion_dot": 3.235e-05,
        "meta_mean_motion_ddot": 0,
        "tle_line1": "1 34433U 93036SA  25336.00918396  .00003235  00000+0  15741-2 0  9995",
        "tle_line2": "2 34433  74.0107 173.9420 0151692 314.3942  44.4856 14.12772315857985"
      },
      "geometry": {
        "type": "Point",
        "coordinates": [
          -162.2939985873552,
          55.24787207258146
        ]
      }
    }
  ]
}